SL-14 R/B               
1 16792U 86046B   26084.90511190  .00000492  00000+0  53742-4 0  9994
2 16792  82.4797  64.8557 0023296 170.5570 189.6089 14.85605415128816
SL-14 R/B               
1 16882U 86055B   26084.35174072  .00000434  00000+0  47185-4 0  9997
2 16882  82.5174 111.9498 0017329 281.3289  89.0218 14.85655898121698
AJISAI (EGS)            
1 16908U 86061A   26084.93147582 -.00000104  00000+0 -47198-4 0  9993
2 16908  50.0106  43.4024 0011327 328.8513  73.5066 12.44515624470023
SL-14 R/B               
1 17567U 87024B   26084.93259885  .00000487  00000+0  52687-4 0  9996
2 17567  82.5249  77.4922 0017550 202.3337 157.7117 14.86146957 90545
COSMOS 1833             
1 17589U 87027A   26084.92955584 -.00000278  00000+0 -12296-3 0  9992
2 17589  70.9177 291.8855 0023423 190.7813 169.2809 14.13048843 12615
SL-16 R/B               
1 17590U 87027B   26084.92670456 -.00000193  00000+0 -71774-4 0  9999
2 17590  71.0011 242.2760 0002848 103.3947 256.7494 14.17165856 17645
SL-14 R/B               
1 17912U 87038B   26084.93591428  .00000444  00000+0  48608-4 0  9998
2 17912  82.4978 281.4991 0020694 109.5323 250.8131 14.85383080 81647
COSMOS 1844             
1 17973U 87041A   26084.94746194  .00000306  00000+0  18392-3 0  9995
2 17973  70.9013 359.8849 0030856 354.1847   5.8912 14.14554321  5885
SL-14 R/B               
1 18153U 87055B   26084.97726612  .00000427  00000+0  46365-4 0  9993
2 18153  82.5012 333.6837 0019716 323.4244  36.5625 14.85645383 72358
COSMOS 1867             
1 18187U 87060A   26084.85872125 -.00000025  00000+0  28437-4 0  9999
2 18187  65.0090 261.4217 0014757 279.6187  80.3230 14.31505385 22256
SL-14 R/B               
1 18749U 88001B   26084.83903620  .00000477  00000+0  52273-4 0  9997
2 18749  82.5161 180.1759 0018074 180.2385 179.8826 14.85545162 44428
COSMOS 1933             
1 18958U 88020A   26084.87351179  .00004195  00000+0  20410-3 0  9998
2 18958  82.5121 234.8954 0005084 133.3427 226.8232 15.18132864 52682
