CCSDS_OMM_VERS = 2.0
CREATION_DATE  = 
ORIGINATOR     = 

OBJECT_NAME    = SL-14 R/B
OBJECT_ID      = 1986-046B
CENTER_NAME    = EARTH
REF_FRAME      = TEME
TIME_SYSTEM    = UTC
MEAN_ELEMENT_THEORY = SGP/SGP4

EPOCH          = 2026-03-25T21:43:21.668160
MEAN_MOTION    = 14.85605415
ECCENTRICITY   = .00232961
INCLINATION    = 82.4797
RA_OF_ASC_NODE = 64.8557
ARG_OF_PERICENTER = 170.5570
MEAN_ANOMALY   = 189.6089

EPHEMERIS_TYPE = 0
CLASSIFICATION_TYPE = U
NORAD_CAT_ID   = 16792
ELEMENT_SET_NO = 999
REV_AT_EPOCH   = 12881
BSTAR          = .53741763E-4
MEAN_MOTION_DOT = .492E-5
MEAN_MOTION_DDOT = 0

CCSDS_OMM_VERS = 2.0
CREATION_DATE  = 
ORIGINATOR     = 

OBJECT_NAME    = SL-14 R/B
OBJECT_ID      = 1986-055B
CENTER_NAME    = EARTH
REF_FRAME      = TEME
TIME_SYSTEM    = UTC
MEAN_ELEMENT_THEORY = SGP/SGP4

EPOCH          = 2026-03-25T08:26:30.398208
MEAN_MOTION    = 14.85655898
ECCENTRICITY   = .00173292
INCLINATION    = 82.5174
RA_OF_ASC_NODE = 111.9498
ARG_OF_PERICENTER = 281.3289
MEAN_ANOMALY   = 89.0218

EPHEMERIS_TYPE = 0
CLASSIFICATION_TYPE = U
NORAD_CAT_ID   = 16882
ELEMENT_SET_NO = 999
REV_AT_EPOCH   = 12169
BSTAR          = .4718467E-4
MEAN_MOTION_DOT = .434E-5
MEAN_MOTION_DDOT = 0

CCSDS_OMM_VERS = 2.0
CREATION_DATE  = 
ORIGINATOR     = 

OBJECT_NAME    = AJISAI (EGS)
OBJECT_ID      = 1986-061A
CENTER_NAME    = EARTH
REF_FRAME      = TEME
TIME_SYSTEM    = UTC
MEAN_ELEMENT_THEORY = SGP/SGP4

EPOCH          = 2026-03-25T22:21:19.510848
MEAN_MOTION    = 12.44515624
ECCENTRICITY   = .00113271
INCLINATION    = 50.0106
RA_OF_ASC_NODE = 43.4024
ARG_OF_PERICENTER = 328.8513
MEAN_ANOMALY   = 73.5066

EPHEMERIS_TYPE = 0
CLASSIFICATION_TYPE = U
NORAD_CAT_ID   = 16908
ELEMENT_SET_NO = 999
REV_AT_EPOCH   = 47002
BSTAR          = -.47197699E-4
MEAN_MOTION_DOT = -.104E-5
MEAN_MOTION_DDOT = 0

CCSDS_OMM_VERS = 2.0
CREATION_DATE  = 
ORIGINATOR     = 

OBJECT_NAME    = SL-14 R/B
OBJECT_ID      = 1987-024B
CENTER_NAME    = EARTH
REF_FRAME      = TEME
TIME_SYSTEM    = UTC
MEAN_ELEMENT_THEORY = SGP/SGP4

EPOCH          = 2026-03-25T22:22:56.540640
MEAN_MOTION    = 14.86146957
ECCENTRICITY   = .00175504
INCLINATION    = 82.5249
RA_OF_ASC_NODE = 77.4922
ARG_OF_PERICENTER = 202.3337
MEAN_ANOMALY   = 157.7117

EPHEMERIS_TYPE = 0
CLASSIFICATION_TYPE = U
NORAD_CAT_ID   = 17567
ELEMENT_SET_NO = 999
REV_AT_EPOCH   = 9054
BSTAR          = .52687069E-4
MEAN_MOTION_DOT = .487E-5
MEAN_MOTION_DDOT = 0

CCSDS_OMM_VERS = 2.0
CREATION_DATE  = 
ORIGINATOR     = 

OBJECT_NAME    = COSMOS 1833
OBJECT_ID      = 1987-027A
CENTER_NAME    = EARTH
REF_FRAME      = TEME
TIME_SYSTEM    = UTC
MEAN_ELEMENT_THEORY = SGP/SGP4

EPOCH          = 2026-03-25T22:18:33.624576
MEAN_MOTION    = 14.13048843
ECCENTRICITY   = .00234231
INCLINATION    = 70.9177
RA_OF_ASC_NODE = 291.8855
ARG_OF_PERICENTER = 190.7813
MEAN_ANOMALY   = 169.2809

EPHEMERIS_TYPE = 0
CLASSIFICATION_TYPE = U
NORAD_CAT_ID   = 17589
ELEMENT_SET_NO = 999
REV_AT_EPOCH   = 1261
BSTAR          = -.12295948E-3
MEAN_MOTION_DOT = -.278E-5
MEAN_MOTION_DDOT = 0

CCSDS_OMM_VERS = 2.0
CREATION_DATE  = 
ORIGINATOR     = 

OBJECT_NAME    = SL-16 R/B
OBJECT_ID      = 1987-027B
CENTER_NAME    = EARTH
REF_FRAME      = TEME
TIME_SYSTEM    = UTC
MEAN_ELEMENT_THEORY = SGP/SGP4

EPOCH          = 2026-03-25T22:14:27.273984
MEAN_MOTION    = 14.17165856
ECCENTRICITY   = .00028487
INCLINATION    = 71.0011
RA_OF_ASC_NODE = 242.2760
ARG_OF_PERICENTER = 103.3947
MEAN_ANOMALY   = 256.7494

EPHEMERIS_TYPE = 0
CLASSIFICATION_TYPE = U
NORAD_CAT_ID   = 17590
ELEMENT_SET_NO = 999
REV_AT_EPOCH   = 1764
BSTAR          = -.71773684E-4
MEAN_MOTION_DOT = -.193E-5
MEAN_MOTION_DDOT = 0

CCSDS_OMM_VERS = 2.0
CREATION_DATE  = 
ORIGINATOR     = 

OBJECT_NAME    = SL-14 R/B
OBJECT_ID      = 1987-038B
CENTER_NAME    = EARTH
REF_FRAME      = TEME
TIME_SYSTEM    = UTC
MEAN_ELEMENT_THEORY = SGP/SGP4

EPOCH          = 2026-03-25T22:27:42.993792
MEAN_MOTION    = 14.85383080
ECCENTRICITY   = .00206944
INCLINATION    = 82.4978
RA_OF_ASC_NODE = 281.4991
ARG_OF_PERICENTER = 109.5323
MEAN_ANOMALY   = 250.8131

EPHEMERIS_TYPE = 0
CLASSIFICATION_TYPE = U
NORAD_CAT_ID   = 17912
ELEMENT_SET_NO = 999
REV_AT_EPOCH   = 8164
BSTAR          = .48607548E-4
MEAN_MOTION_DOT = .444E-5
MEAN_MOTION_DDOT = 0

CCSDS_OMM_VERS = 2.0
CREATION_DATE  = 
ORIGINATOR     = 

OBJECT_NAME    = COSMOS 1844
OBJECT_ID      = 1987-041A
CENTER_NAME    = EARTH
REF_FRAME      = TEME
TIME_SYSTEM    = UTC
MEAN_ELEMENT_THEORY = SGP/SGP4

EPOCH          = 2026-03-25T22:44:20.711616
MEAN_MOTION    = 14.14554321
ECCENTRICITY   = .00308567
INCLINATION    = 70.9013
RA_OF_ASC_NODE = 359.8849
ARG_OF_PERICENTER = 354.1847
MEAN_ANOMALY   = 5.8912

EPHEMERIS_TYPE = 0
CLASSIFICATION_TYPE = U
NORAD_CAT_ID   = 17973
ELEMENT_SET_NO = 999
REV_AT_EPOCH   = 588
BSTAR          = .18391912E-3
MEAN_MOTION_DOT = .306E-5
MEAN_MOTION_DDOT = 0

CCSDS_OMM_VERS = 2.0
CREATION_DATE  = 
ORIGINATOR     = 

OBJECT_NAME    = SL-14 R/B
OBJECT_ID      = 1987-055B
CENTER_NAME    = EARTH
REF_FRAME      = TEME
TIME_SYSTEM    = UTC
MEAN_ELEMENT_THEORY = SGP/SGP4

EPOCH          = 2026-03-25T23:27:15.792768
MEAN_MOTION    = 14.85645383
ECCENTRICITY   = .00197164
INCLINATION    = 82.5012
RA_OF_ASC_NODE = 333.6837
ARG_OF_PERICENTER = 323.4244
MEAN_ANOMALY   = 36.5625

EPHEMERIS_TYPE = 0
CLASSIFICATION_TYPE = U
NORAD_CAT_ID   = 18153
ELEMENT_SET_NO = 999
REV_AT_EPOCH   = 7235
BSTAR          = .46365253E-4
MEAN_MOTION_DOT = .427E-5
MEAN_MOTION_DDOT = 0

CCSDS_OMM_VERS = 2.0
CREATION_DATE  = 
ORIGINATOR     = 

OBJECT_NAME    = COSMOS 1867
OBJECT_ID      = 1987-060A
CENTER_NAME    = EARTH
REF_FRAME      = TEME
TIME_SYSTEM    = UTC
MEAN_ELEMENT_THEORY = SGP/SGP4

EPOCH          = 2026-03-25T20:36:33.516000
MEAN_MOTION    = 14.31505385
ECCENTRICITY   = .00147577
INCLINATION    = 65.0090
RA_OF_ASC_NODE = 261.4217
ARG_OF_PERICENTER = 279.6187
MEAN_ANOMALY   = 80.3230

EPHEMERIS_TYPE = 0
CLASSIFICATION_TYPE = U
NORAD_CAT_ID   = 18187
ELEMENT_SET_NO = 999
REV_AT_EPOCH   = 2225
BSTAR          = .2843684E-4
MEAN_MOTION_DOT = -.25E-6
MEAN_MOTION_DDOT = 0

CCSDS_OMM_VERS = 2.0
CREATION_DATE  = 
ORIGINATOR     = 

OBJECT_NAME    = SL-14 R/B
OBJECT_ID      = 1988-001B
CENTER_NAME    = EARTH
REF_FRAME      = TEME
TIME_SYSTEM    = UTC
MEAN_ELEMENT_THEORY = SGP/SGP4

EPOCH          = 2026-03-25T20:08:12.727680
MEAN_MOTION    = 14.85545162
ECCENTRICITY   = .00180744
INCLINATION    = 82.5161
RA_OF_ASC_NODE = 180.1759
ARG_OF_PERICENTER = 180.2385
MEAN_ANOMALY   = 179.8826

EPHEMERIS_TYPE = 0
CLASSIFICATION_TYPE = U
NORAD_CAT_ID   = 18749
ELEMENT_SET_NO = 999
REV_AT_EPOCH   = 4442
BSTAR          = .52272818E-4
MEAN_MOTION_DOT = .477E-5
MEAN_MOTION_DDOT = 0

CCSDS_OMM_VERS = 2.0
CREATION_DATE  = 
ORIGINATOR     = 

OBJECT_NAME    = COSMOS 1933
OBJECT_ID      = 1988-020A
CENTER_NAME    = EARTH
REF_FRAME      = TEME
TIME_SYSTEM    = UTC
MEAN_ELEMENT_THEORY = SGP/SGP4

EPOCH          = 2026-03-25T20:57:51.418656
MEAN_MOTION    = 15.18132864
ECCENTRICITY   = .00050846
INCLINATION    = 82.5121
RA_OF_ASC_NODE = 234.8954
ARG_OF_PERICENTER = 133.3427
MEAN_ANOMALY   = 226.8232

EPHEMERIS_TYPE = 0
CLASSIFICATION_TYPE = U
NORAD_CAT_ID   = 18958
ELEMENT_SET_NO = 999
REV_AT_EPOCH   = 5268
BSTAR          = .20410047E-3
MEAN_MOTION_DOT = .4195E-4
MEAN_MOTION_DDOT = 0

